OBJECT_NAME,OBJECT_ID,EPOCH,MEAN_MOTION,ECCENTRICITY,INCLINATION,RA_OF_ASC_NODE,ARG_OF_PERICENTER,MEAN_ANOMALY,EPHEMERIS_TYPE,CLASSIFICATION_TYPE,NORAD_CAT_ID,ELEMENT_SET_NO,REV_AT_EPOCH,BSTAR,MEAN_MOTION_DOT,MEAN_MOTION_DDOT
BEIDOU-3 G1,2018-085A,2026-07-22T22:20:53.119104,1.00273032,.0008338,2.9568,96.4078,357.3819,342.0984,0,U,43683,999,2841,0,-.107E-5,0
GSAT-29,2018-089A,2026-07-22T21:24:38.597760,1.00270605,.000327,0.0127,304.9919,157.2329,214.6003,0,U,43698,999,2814,0,.89E-6,0
ES'HAIL 2,2018-090A,2026-07-22T20:43:38.852832,1.00273274,.00026609,0.0162,44.9609,111.0623,121.3054,0,U,43700,999,2803,0,0,0
GEO-KOMPSAT-2A,2018-100A,2026-07-22T22:11:46.492224,1.00268710,.00025806,0.0214,78.1066,21.7736,301.9984,0,U,43823,999,2798,0,0,0
GSAT-11,2018-100B,2026-07-22T21:56:17.975616,1.00270594,.00080215,0.1126,264.4902,196.4121,242.8216,0,U,43824,999,2783,0,-.72E-6,0
GSAT-7A,2018-105A,2026-07-22T21:53:10.775328,1.00269776,.00020661,0.0197,62.7200,39.7755,229.2141,0,U,43864,999,2780,0,0,0
COSMOS 2533,2018-107A,2026-07-22T22:31:10.718400,1.00271900,.00002823,0.0326,120.7451,94.6486,133.0674,0,U,43867,999,2780,0,-.34E-6,0
TJS-3,2018-110A,2026-07-22T12:31:38.500896,1.00270949,.0002758,2.6334,80.0664,84.7757,111.5470,0,U,43874,999,2777,0,-.215E-5,0
ZHONGXING-2D,2019-001A,2026-07-22T22:12:16.445376,1.00271173,.00003678,0.0100,219.0159,177.5353,7.2269,0,U,43920,999,5443,0,0,0
HELLAS-SAT 4 & SGS-1,2019-007A,2026-07-22T21:31:53.810112,1.00271619,.00059254,0.0650,126.9364,18.9630,156.7161,0,U,44034,999,2772,0,.157E-5,0
GSAT-31,2019-007B,2026-07-22T22:25:18.622848,1.00273776,.00009618,0.0326,99.2927,108.0500,117.5551,0,U,44035,999,2732,0,.129E-5,0
NUSANTARA SATU,2019-009A,2026-07-22T22:16:53.501664,1.00270378,.00049009,0.0299,120.9302,7.9774,291.9779,0,U,44048,999,2712,0,-.231E-5,0
ZHONGXING-6C,2019-012A,2026-07-22T22:12:31.421088,1.00272055,.00151142,0.0645,69.6138,345.7625,348.8834,0,U,44067,999,2709,0,-.331E-5,0
WGS 10 (USA 291),2019-014A,2026-07-22T22:31:20.047008,1.00270283,.00002722,0.0153,74.2904,348.7296,275.7860,0,U,44071,999,2697,0,.51E-6,0
TIANLIAN 2-01,2019-017A,2026-07-22T21:16:38.931744,1.00271735,.00017901,0.6295,83.0420,74.9753,178.7757,0,U,44076,999,2700,0,-.103E-5,0
ARABSAT-6A,2019-021A,2026-07-22T21:22:20.667936,1.00275248,.00023461,0.0435,9.0680,243.3603,39.2716,0,U,44186,999,2651,0,.158E-5,0
BEIDOU-3 IGSO-1,2019-023A,2026-07-22T10:37:38.665632,1.00281841,.00261943,58.7457,37.2857,223.4912,318.1363,0,U,44204,999,756,0,-.208E-5,0
BEIDOU-2 G8,2019-027A,2026-07-22T22:16:31.037664,1.00270152,.00095679,1.7467,74.5080,284.1646,60.6301,0,U,44231,999,2643,0,-.245E-5,0
YAMAL 601,2019-031A,2026-07-22T23:38:41.319744,1.00273126,.00027065,0.0206,94.3773,26.8481,223.1658,0,U,44307,999,2628,0,.124E-5,0
AT&T T-16,2019-034A,2026-07-22T15:58:28.215840,1.00269612,.00008613,0.0154,77.2056,292.3533,69.5986,0,U,44333,999,2598,0,-.111E-5,0
EUTELSAT 7C,2019-034B,2026-07-22T20:59:38.732640,1.00269773,.00036992,0.0767,183.5705,288.3757,150.5784,0,U,44334,999,719,0,.52E-6,0
BEIDOU-3 IGSO-2,2019-035A,2026-07-21T18:25:21.211104,1.00289985,.00390505,55.2573,158.5594,212.8700,322.7485,0,U,44337,999,2601,0,-.106E-5,0
COSMOS 2539,2019-048A,2026-07-22T07:57:29.208384,1.00274394,.00006536,0.0292,109.1828,79.5992,242.6658,0,U,44457,999,2557,0,.85E-6,0
EDRS-C,2019-049A,2026-07-22T22:15:53.597952,1.00271295,.00011175,0.0132,98.6667,26.4680,291.9948,0,U,44475,999,2556,0,-.258E-5,0
INTELSAT 39 (IS-39),2019-049B,2026-07-22T22:23:31.214688,1.00270489,.00008968,0.0226,51.1445,315.2336,332.1241,0,U,44476,999,2548,0,0,0
AMOS-17,2019-050A,2026-07-22T21:40:04.531008,1.00270899,.00017092,0.0252,328.0729,154.5911,159.9818,0,U,44479,999,2554,0,.113E-5,0
AEHF-5 (USA 292),2019-051A,2026-07-22T22:01:54.937344,1.00272222,.00646488,1.4251,339.0230,357.2731,27.9333,0,U,44481,999,2562,0,-.252E-5,0
EUTELSAT 5 WEST B,2019-067A,2026-07-22T21:33:36.658080,1.00272092,.00032816,0.0727,326.9758,152.7469,139.3042,0,U,44624,999,2479,0,-.38E-6,0
TJS-4,2019-070A,2026-07-22T21:59:02.711904,1.00273575,.00001648,0.0909,258.9489,347.1558,107.9055,0,U,44637,999,2489,0,-.166E-5,0
TIBA-1,2019-080A,2026-07-22T21:45:19.028736,1.00269493,.00021663,0.0505,0.9267,119.4090,182.1569,0,U,44800,999,2441,0,.16E-5,0
INMARSAT GX5,2019-080B,2026-07-22T21:06:23.766336,1.00271836,.00023255,0.0379,26.8345,100.4478,140.9302,0,U,44801,999,714,0,.79E-6,0
JCSAT-18 (KACIFIC 1),2019-091A,2026-07-22T18:54:38.582784,1.00270154,.00002217,0.0477,242.9700,304.6714,186.5054,0,U,44868,999,2436,0,-.197E-5,0
