{"epoch":1784799577,"count":18318,"objects":[{"id":"43683","name":"BEIDOU 3G1","type":"PAYLOAD","l1":"1 43683U 18085A   26203.93117036 -.00000107  00000-0  00000-0 0  9998","l2":"2 43683   2.9568  96.4078 0008338 357.3819 342.0984  1.00273032 28411"},{"id":"43698","name":"GSAT 29","type":"PAYLOAD","l1":"1 43698U 18089A   26203.89211340  .00000089  00000-0  00000-0 0  9994","l2":"2 43698   0.0127 304.9919 0003270 157.2329 214.6003  1.00270605 28140"},{"id":"43700","name":"ES'HAIL 2","type":"PAYLOAD","l1":"1 43700U 18090A   26203.86364413  .00000000  00000-0  00000-0 0  9990","l2":"2 43700   0.0162  44.9609 0002661 111.0623 121.3054  1.00273274 28031"},{"id":"43823","name":"GEO-KOMPSAT-2A","type":"PAYLOAD","l1":"1 43823U 18100A   26203.92484366  .00000000  00000-0  00000-0 0  9995","l2":"2 43823   0.0214  78.1066 0002581  21.7736 301.9984  1.00268710 27984"},{"id":"43824","name":"GSAT 11","type":"PAYLOAD","l1":"1 43824U 18100B   26203.91409694 -.00000072  00000-0  00000-0 0  9996","l2":"2 43824   0.1126 264.4902 0008022 196.4121 242.8216  1.00270594 27839"},{"id":"43864","name":"GSAT 7A","type":"PAYLOAD","l1":"1 43864U 18105A   26203.91193027  .00000000  00000-0  00000-0 0  9995","l2":"2 43864   0.0197  62.7200 0002066  39.7755 229.2141  1.00269776 27807"},{"id":"43867","name":"COSMOS 2533","type":"PAYLOAD","l1":"1 43867U 18107A   26203.93831850 -.00000034  00000-0  00000-0 0  9993","l2":"2 43867   0.0326 120.7451 0000282  94.6486 133.0674  1.00271900 27801"},{"id":"43874","name":"TJS-3","type":"PAYLOAD","l1":"1 43874U 18110A   26203.52197339 -.00000215  00000-0  00000+0 0  9997","l2":"2 43874   2.6334  80.0664 0002758  84.7757 111.5470  1.00270949 27774"},{"id":"43920","name":"CHINASAT 2D","type":"PAYLOAD","l1":"1 43920U 19001A   26203.92519034  .00000000  00000-0  00000-0 0  9995","l2":"2 43920   0.0100 219.0159 0000368 177.5353   7.2269  1.00271173 54430"},{"id":"44034","name":"SAUDIGEOSAT1/HELLASSAT4","type":"PAYLOAD","l1":"1 44034U 19007A   26203.89715058  .00000157  00000-0  00000-0 0  9991","l2":"2 44034   0.0650 126.9364 0005925  18.9630 156.7161  1.00271619 27729"},{"id":"44035","name":"GSAT 31","type":"PAYLOAD","l1":"1 44035U 19007B   26203.93424332  .00000129  00000-0  00000-0 0  9998","l2":"2 44035   0.0326  99.2927 0000962 108.0500 117.5551  1.00273776 27320"},{"id":"44048","name":"NUSANTARA SATU","type":"PAYLOAD","l1":"1 44048U 19009A   26203.92839701 -.00000231  00000-0  00000-0 0  9998","l2":"2 44048   0.0299 120.9302 0004901   7.9774 291.9779  1.00270378 27121"},{"id":"44067","name":"CHINASAT 6C","type":"PAYLOAD","l1":"1 44067U 19012A   26203.92536367 -.00000331  00000-0  00000-0 0  9996","l2":"2 44067   0.0645  69.6138 0015114 345.7625 348.8834  1.00272055 27093"},{"id":"44071","name":"WGS 10 (USA 291)","type":"PAYLOAD","l1":"1 44071U 19014A   26203.93842647  .00000051  00000-0  00000-0 0  9993","l2":"2 44071   0.0153  74.2904 0000272 348.7296 275.7860  1.00270283 26975"},{"id":"44076","name":"TIANLIAN 2-01","type":"PAYLOAD","l1":"1 44076U 19017A   26203.88656171 -.00000103  00000-0  00000-0 0  9999","l2":"2 44076   0.6295  83.0420 0001790  74.9753 178.7757  1.00271735 27001"},{"id":"44186","name":"ARABSAT 6A","type":"PAYLOAD","l1":"1 44186U 19021A   26203.89051699  .00000158  00000-0  00000-0 0  9990","l2":"2 44186   0.0435   9.0680 0002346 243.3603  39.2716  1.00275248 26517"},{"id":"44204","name":"BEIDOU 3 IGSO-1","type":"PAYLOAD","l1":"1 44204U 19023A   26203.44280863 -.00000208  00000-0  00000-0 0  9998","l2":"2 44204  58.7457  37.2857 0026194 223.4912 318.1363  1.00281841  7567"},{"id":"44231","name":"BEIDOU 2 G8","type":"PAYLOAD","l1":"1 44231U 19027A   26203.92813701 -.00000245  00000-0  00000-0 0  9999","l2":"2 44231   1.7467  74.5080 0009568 284.1646  60.6301  1.00270152 26433"},{"id":"44307","name":"YAMAL 601","type":"PAYLOAD","l1":"1 44307U 19031A   26203.98520046  .00000124  00000-0  00000-0 0  9996","l2":"2 44307   0.0206  94.3773 0002706  26.8481 223.1658  1.00273126 26282"},{"id":"44333","name":"AT&T T-16","type":"PAYLOAD","l1":"1 44333U 19034A   26203.66560435 -.00000111  00000-0  00000-0 0  9996","l2":"2 44333   0.0154  77.2056 0000861 292.3533  69.5986  1.00269612 25982"},{"id":"44334","name":"EUTE 7C","type":"PAYLOAD","l1":"1 44334U 19034B   26203.87475385  .00000052  00000-0  00000-0 0  9992","l2":"2 44334   0.0767 183.5705 0003699 288.3757 150.5784  1.00269773  7198"},{"id":"44337","name":"BEIDOU 3 IGSO-2","type":"PAYLOAD","l1":"1 44337U 19035A   26202.76760661 -.00000106  00000-0  00000-0 0  9998","l2":"2 44337  55.2573 158.5594 0039051 212.8700 322.7485  1.00289985 26017"},{"id":"44457","name":"COSMOS 2539","type":"PAYLOAD","l1":"1 44457U 19048A   26203.33158806  .00000085  00000-0  00000-0 0  9996","l2":"2 44457   0.0292 109.1828 0000654  79.5992 242.6658  1.00274394 25576"},{"id":"44475","name":"EDRS-C","type":"PAYLOAD","l1":"1 44475U 19049A   26203.92770368 -.00000258  00000-0  00000-0 0  9998","l2":"2 44475   0.0132  98.6667 0001118  26.4680 291.9948  1.00271295 25568"},{"id":"44476","name":"INTELSAT 39","type":"PAYLOAD","l1":"1 44476U 19049B   26203.93300017  .00000000  00000-0  00000-0 0  9994","l2":"2 44476   0.0226  51.1445 0000897 315.2336 332.1241  1.00270489 25480"},{"id":"44479","name":"AMOS 17","type":"PAYLOAD","l1":"1 44479U 19050A   26203.90283022  .00000113  00000-0  00000-0 0  9997","l2":"2 44479   0.0252 328.0729 0001709 154.5911 159.9818  1.00270899 25546"},{"id":"44481","name":"AEHF 5 (USA 292)","type":"PAYLOAD","l1":"1 44481U 19051A   26203.91799696 -.00000252  00000-0  00000-0 0  9996","l2":"2 44481   1.4251 339.0230 0064649 357.2731  27.9333  1.00272222 25623"},{"id":"44624","name":"EUTE 5W B","type":"PAYLOAD","l1":"1 44624U 19067A   26203.89834095 -.00000038  00000-0  00000-0 0  9994","l2":"2 44624   0.0727 326.9758 0003282 152.7469 139.3042  1.00272092 24794"},{"id":"44637","name":"TJS-4","type":"PAYLOAD","l1":"1 44637U 19070A   26203.91600361 -.00000166  00000-0  00000-0 0  9994","l2":"2 44637   0.0909 258.9489 0000165 347.1558 107.9055  1.00273575 24894"},{"id":"44800","name":"TIBA-1","type":"PAYLOAD","l1":"1 44800U 19080A   26203.90647024  .00000160  00000-0  00000-0 0  9996","l2":"2 44800   0.0505   0.9267 0002166 119.4090 182.1569  1.00269493 24418"},{"id":"44801","name":"INMARSAT GX5","type":"PAYLOAD","l1":"1 44801U 19080B   26203.87944174  .00000079  00000-0  00000-0 0  9998","l2":"2 44801   0.0379  26.8345 0002325 100.4478 140.9302  1.00271836  7141"},{"id":"44868","name":"JCSAT 18","type":"PAYLOAD","l1":"1 44868U 19091A   26203.78794656 -.00000197  00000-0  00000-0 0  9993","l2":"2 44868   0.0477 242.9700 0000222 304.6714 186.5054  1.00270154 24369"}]}